start=new Date('2023-02-12T00:00:00.000Z').valueOf();
sats=[{"EPOCH":"2023-02-11T20:30:52.850304","MEAN_MOTION":"15.06396407","MEAN_ELEMENT_THEORY":"SGP4","OBJECT_NAME":"STARLINK-1773","PERIOD":"95.592","DECAY_DATE":null,"GP_ID":"225182025","SITE":"AFETR","PERIAPSIS":"546.355","RA_OF_ASC_NODE":"217.7260","ARG_OF_PERICENTER":"85.0358","TLE_LINE2":"2 46679  53.0545 217.7260 0001256  85.0358 275.0774 15.06396407128323","APOAPSIS":"548.094","COUNTRY_CODE":"US","OBJECT_ID":"2020-073K","MEAN_MOTION_DOT":"0.00000336","LAUNCH_DATE":"2020-10-18","TIME_SYSTEM":"UTC","MEAN_MOTION_DDOT":"0.0000000000000","BSTAR":"0.00004141800000","INCLINATION":"53.0545","FILE":"3786577","OBJECT_TYPE":"PAYLOAD","REF_FRAME":"TEME","REV_AT_EPOCH":"12832","MEAN_ANOMALY":"275.0774","EPHEMERIS_TYPE":"0","RCS_SIZE":"LARGE","CENTER_NAME":"EARTH","ELEMENT_SET_NO":"999","CLASSIFICATION_TYPE":"U","TLE_LINE1":"1 46679U 20073K   23042.85477836  .00000336  00000-0  41418-4 0  9997","NORAD_CAT_ID":"46679","SEMIMAJOR_AXIS":"6925.360","ECCENTRICITY":"0.00012560"},{"OBJECT_TYPE":"PAYLOAD","FILE":"3786577","INCLINATION":"53.0521","BSTAR":"-0.00004392700000","REV_AT_EPOCH":"12783","REF_FRAME":"TEME","ELEMENT_SET_NO":"999","CENTER_NAME":"EARTH","RCS_SIZE":"LARGE","EPHEMERIS_TYPE":"0","MEAN_ANOMALY":"287.2420","ECCENTRICITY":"0.00010020","SEMIMAJOR_AXIS":"6925.367","CLASSIFICATION_TYPE":"U","TLE_LINE1":"1 46680U 20073L   23042.85708333 -.00000935  00000-0 -43927-4 0  9992","NORAD_CAT_ID":"46680","EPOCH":"2023-02-11T20:34:11.999712","PERIOD":"95.593","OBJECT_NAME":"STARLINK-1774","MEAN_ELEMENT_THEORY":"SGP4","MEAN_MOTION":"15.06393832","PERIAPSIS":"546.539","SITE":"AFETR","GP_ID":"225180275","DECAY_DATE":null,"MEAN_MOTION_DDOT":"0.0000000000000","TIME_SYSTEM":"UTC","LAUNCH_DATE":"2020-10-18","MEAN_MOTION_DOT":"-0.00000935","COUNTRY_CODE":"US","OBJECT_ID":"2020-073L","TLE_LINE2":"2 46680  53.0521 252.7230 0001002  72.8679 287.2420 15.06393832127831","APOAPSIS":"547.926","RA_OF_ASC_NODE":"252.7230","ARG_OF_PERICENTER":"72.8679"},{"MEAN_ANOMALY":"259.6023","EPHEMERIS_TYPE":"0","RCS_SIZE":"LARGE","CENTER_NAME":"EARTH","ELEMENT_SET_NO":"999","TLE_LINE1":"1 46681U 20073M   23041.89873759  .00001427  00000-0  11466-3 0  9998","CLASSIFICATION_TYPE":"U","NORAD_CAT_ID":"46681","SEMIMAJOR_AXIS":"6925.365","ECCENTRICITY":"0.00007310","BSTAR":"0.00011466000000","INCLINATION":"53.0508","FILE":"3785278","OBJECT_TYPE":"PAYLOAD","REF_FRAME":"TEME","REV_AT_EPOCH":"12816","GP_ID":"225079147","DECAY_DATE":null,"SITE":"AFETR","PERIAPSIS":"546.724","RA_OF_ASC_NODE":"257.0243","ARG_OF_PERICENTER":"100.5048","APOAPSIS":"547.737","TLE_LINE2":"2 46681  53.0508 257.0243 0000731 100.5048 259.6023 15.06394478128162","COUNTRY_CODE":"US","OBJECT_ID":"2020-073M","LAUNCH_DATE":"2020-10-18","MEAN_MOTION_DOT":"0.00001427","MEAN_MOTION_DDOT":"0.0000000000000","TIME_SYSTEM":"UTC","EPOCH":"2023-02-10T21:34:10.927776","MEAN_MOTION":"15.06394478","MEAN_ELEMENT_THEORY":"SGP4","OBJECT_NAME":"STARLINK-1775","PERIOD":"95.592"},{"BSTAR":"0.00015583000000","INCLINATION":"53.0509","FILE":"3786577","OBJECT_TYPE":"PAYLOAD","REV_AT_EPOCH":"12783","REF_FRAME":"TEME","MEAN_ANOMALY":"263.4355","RCS_SIZE":"LARGE","EPHEMERIS_TYPE":"0","ELEMENT_SET_NO":"999","CENTER_NAME":"EARTH","TLE_LINE1":"1 46682U 20073N   23042.85339992  .00002039  00000-0  15583-3 0  9996","CLASSIFICATION_TYPE":"U","NORAD_CAT_ID":"46682","SEMIMAJOR_AXIS":"6925.428","ECCENTRICITY":"0.00009740","EPOCH":"2023-02-11T20:28:53.753088","MEAN_MOTION":"15.06374149","MEAN_ELEMENT_THEORY":"SGP4","PERIOD":"95.594","OBJECT_NAME":"STARLINK-1776","GP_ID":"225181777","DECAY_DATE":null,"SITE":"AFETR","PERIAPSIS":"546.618","ARG_OF_PERICENTER":"96.6745","RA_OF_ASC_NODE":"252.7383","OBJECT_ID":"2020-073N","COUNTRY_CODE":"US","APOAPSIS":"547.967","TLE_LINE2":"2 46682  53.0509 252.7383 0000974  96.6745 263.4355 15.06374149127836","MEAN_MOTION_DOT":"0.00002039","LAUNCH_DATE":"2020-10-18","MEAN_MOTION_DDOT":"0.0000000000000","TIME_SYSTEM":"UTC"},{"EPHEMERIS_TYPE":"0","RCS_SIZE":"LARGE","MEAN_ANOMALY":"254.3218","CENTER_NAME":"EARTH","ELEMENT_SET_NO":"999","TLE_LINE1":"1 46684U 20073Q   23042.84187877 -.00000049  00000-0  15584-4 0  9992","NORAD_CAT_ID":"46684","CLASSIFICATION_TYPE":"U","ECCENTRICITY":"0.00013020","SEMIMAJOR_AXIS":"6925.372","INCLINATION":"53.0522","BSTAR":"0.00001558400000","OBJECT_TYPE":"PAYLOAD","FILE":"3786577","REF_FRAME":"TEME","REV_AT_EPOCH":"12804","SITE":"AFETR","GP_ID":"225181527","DECAY_DATE":null,"PERIAPSIS":"546.335","TLE_LINE2":"2 46684  53.0522 237.7894 0001302 105.7915 254.3218 15.06392478128046","APOAPSIS":"548.138","COUNTRY_CODE":"US","OBJECT_ID":"2020-073Q","ARG_OF_PERICENTER":"105.7915","RA_OF_ASC_NODE":"237.7894","MEAN_MOTION_DDOT":"0.0000000000000","TIME_SYSTEM":"UTC","LAUNCH_DATE":"2020-10-18","MEAN_MOTION_DOT":"-0.00000049","EPOCH":"2023-02-11T20:12:18.325728","MEAN_ELEMENT_THEORY":"SGP4","MEAN_MOTION":"15.06392478","OBJECT_NAME":"STARLINK-1780","PERIOD":"95.593"},{"REV_AT_EPOCH":"12768","REF_FRAME":"TEME","INCLINATION":"53.0541","BSTAR":"0.00029297000000","OBJECT_TYPE":"PAYLOAD","FILE":"3786144","NORAD_CAT_ID":"46685","TLE_LINE1":"1 46685U 20073R   23041.90147577  .00004085  00000-0  29297-3 0  9990","CLASSIFICATION_TYPE":"U","ECCENTRICITY":"0.00009580","SEMIMAJOR_AXIS":"6925.339","RCS_SIZE":"LARGE","EPHEMERIS_TYPE":"0","MEAN_ANOMALY":"263.0065","ELEMENT_SET_NO":"999","CENTER_NAME":"EARTH","MEAN_ELEMENT_THEORY":"SGP4","MEAN_MOTION":"15.06403124","PERIOD":"95.592","OBJECT_NAME":"STARLINK-1781","EPOCH":"2023-02-10T21:38:07.506528","OBJECT_ID":"2020-073R","COUNTRY_CODE":"US","TLE_LINE2":"2 46685  53.0541 256.9980 0000958  97.1033 263.0065 15.06403124127685","APOAPSIS":"547.867","ARG_OF_PERICENTER":"97.1033","RA_OF_ASC_NODE":"256.9980","MEAN_MOTION_DDOT":"0.0000000000000","TIME_SYSTEM":"UTC","LAUNCH_DATE":"2020-10-18","MEAN_MOTION_DOT":"0.00004085","SITE":"AFETR","GP_ID":"225117669","DECAY_DATE":null,"PERIAPSIS":"546.541"},{"OBJECT_NAME":"STARLINK-1783","PERIOD":"95.592","MEAN_MOTION":"15.06405532","MEAN_ELEMENT_THEORY":"SGP4","EPOCH":"2023-02-11T22:34:53.990688","LAUNCH_DATE":"2020-10-18","MEAN_MOTION_DOT":"0.00002869","TIME_SYSTEM":"UTC","MEAN_MOTION_DDOT":"0.0000000000000","RA_OF_ASC_NODE":"252.2929","ARG_OF_PERICENTER":"81.0710","TLE_LINE2":"2 46686  53.0522 252.2929 0001150  81.0710 279.0409 15.06405532128322","APOAPSIS":"547.993","COUNTRY_CODE":"US","OBJECT_ID":"2020-073S","PERIAPSIS":"546.400","DECAY_DATE":null,"GP_ID":"225160232","SITE":"AFETR","REF_FRAME":"TEME","REV_AT_EPOCH":"12832","FILE":"3786509","OBJECT_TYPE":"PAYLOAD","BSTAR":"0.00021136000000","INCLINATION":"53.0522","SEMIMAJOR_AXIS":"6925.332","ECCENTRICITY":"0.00011500","CLASSIFICATION_TYPE":"U","TLE_LINE1":"1 46686U 20073S   23042.94090267  .00002869  00000-0  21136-3 0  9991","NORAD_CAT_ID":"46686","CENTER_NAME":"EARTH","ELEMENT_SET_NO":"999","MEAN_ANOMALY":"279.0409","EPHEMERIS_TYPE":"0","RCS_SIZE":"LARGE"},{"ARG_OF_PERICENTER":"79.9771","RA_OF_ASC_NODE":"217.6826","APOAPSIS":"548.000","TLE_LINE2":"2 46687  53.0520 217.6826 0001177  79.9771 280.1351 15.06409340128324","OBJECT_ID":"2020-073T","COUNTRY_CODE":"US","MEAN_MOTION_DOT":"0.00011483","LAUNCH_DATE":"2020-10-18","MEAN_MOTION_DDOT":"0.0000000000000","TIME_SYSTEM":"UTC","DECAY_DATE":null,"GP_ID":"225181277","SITE":"AFETR","PERIAPSIS":"546.370","MEAN_MOTION":"15.06409340","MEAN_ELEMENT_THEORY":"SGP4","OBJECT_NAME":"STARLINK-1784","PERIOD":"95.592","EPOCH":"2023-02-11T20:46:48.047232","TLE_LINE1":"1 46687U 20073T   23042.86583388  .00011483  00000-0  78832-3 0  9991","NORAD_CAT_ID":"46687","CLASSIFICATION_TYPE":"U","SEMIMAJOR_AXIS":"6925.320","ECCENTRICITY":"0.00011770","MEAN_ANOMALY":"280.1351","EPHEMERIS_TYPE":"0","RCS_SIZE":"LARGE","CENTER_NAME":"EARTH","ELEMENT_SET_NO":"999","REF_FRAME":"TEME","REV_AT_EPOCH":"12832","BSTAR":"0.00078832000000","INCLINATION":"53.0520","FILE":"3786577","OBJECT_TYPE":"PAYLOAD"},{"SEMIMAJOR_AXIS":"6925.345","ECCENTRICITY":"0.00008580","TLE_LINE1":"1 46689U 20073V   23041.89505089  .00003810  00000-0  27454-3 0  9996","NORAD_CAT_ID":"46689","CLASSIFICATION_TYPE":"U","CENTER_NAME":"EARTH","ELEMENT_SET_NO":"999","MEAN_ANOMALY":"281.1527","EPHEMERIS_TYPE":"0","RCS_SIZE":"LARGE","REF_FRAME":"TEME","REV_AT_EPOCH":"12816","FILE":"3785295","OBJECT_TYPE":"PAYLOAD","BSTAR":"0.00027454000000","INCLINATION":"53.0538","LAUNCH_DATE":"2020-10-18","MEAN_MOTION_DOT":"0.00003810","MEAN_MOTION_DDOT":"0.0000000000000","TIME_SYSTEM":"UTC","RA_OF_ASC_NODE":"257.0374","ARG_OF_PERICENTER":"78.9558","APOAPSIS":"547.804","TLE_LINE2":"2 46689  53.0538 257.0374 0000858  78.9558 281.1527 15.06401176128165","COUNTRY_CODE":"US","OBJECT_ID":"2020-073V","PERIAPSIS":"546.616","GP_ID":"225079753","DECAY_DATE":null,"SITE":"AFETR","OBJECT_NAME":"STARLINK-1788","PERIOD":"95.592","MEAN_MOTION":"15.06401176","MEAN_ELEMENT_THEORY":"SGP4","EPOCH":"2023-02-10T21:28:52.396896"},{"PERIOD":"95.592","OBJECT_NAME":"STARLINK-1789","MEAN_ELEMENT_THEORY":"SGP4","MEAN_MOTION":"15.06398426","EPOCH":"2023-02-11T05:27:13.814208","MEAN_MOTION_DDOT":"0.0000000000000","TIME_SYSTEM":"UTC","LAUNCH_DATE":"2020-10-18","MEAN_MOTION_DOT":"0.00000841","COUNTRY_CODE":"US","OBJECT_ID":"2020-073W","TLE_LINE2":"2 46690  53.0519 230.5506 0001023 116.7641 243.3452 15.06398426128089","APOAPSIS":"547.927","RA_OF_ASC_NODE":"230.5506","ARG_OF_PERICENTER":"116.7641","PERIAPSIS":"546.510","SITE":"AFETR","DECAY_DATE":null,"GP_ID":"225117170","REV_AT_EPOCH":"12808","REF_FRAME":"TEME","OBJECT_TYPE":"PAYLOAD","FILE":"3786144","INCLINATION":"53.0519","BSTAR":"0.00007531400000","ECCENTRICITY":"0.00010230","SEMIMAJOR_AXIS":"6925.353","TLE_LINE1":"1 46690U 20073W   23042.22724322  .00000841  00000-0  75314-4 0  9999","CLASSIFICATION_TYPE":"U","NORAD_CAT_ID":"46690","ELEMENT_SET_NO":"999","CENTER_NAME":"EARTH","RCS_SIZE":"LARGE","EPHEMERIS_TYPE":"0","MEAN_ANOMALY":"243.3452"}];
